ONEWEB-0083             
1 45435U 20020M   26160.12041365 -.00000173  00000+0 -52407-3 0  9995
2 45435  87.8902  22.6655 0001720  84.1115 276.0209 13.11418822301611
ONEWEB-0095             
1 45436U 20020N   26160.11195615  .00001005  00000+0  28011-2 0  9999
2 45436  87.8915  22.6771 0002717  94.1682 265.9757 13.11406422301610
ONEWEB-0092             
1 45437U 20020P   26160.06721525  .00000574  00000+0  15698-2 0  9996
2 45437  87.8902  22.6764 0002143  85.6072 274.5301 13.11955608301728
ONEWEB-0085             
1 45438U 20020Q   26160.12013421 -.00000229  00000+0 -68114-3 0  9994
2 45438  87.8897  22.6727 0001805  84.4628 275.6706 13.11419728301616
ONEWEB-0096             
1 45439U 20020R   26160.12199698 -.00000131  00000+0 -40592-3 0  9998
2 45439  87.8904  22.6677 0001840  86.7787 273.3551 13.11424282301603
ONEWEB-0037             
1 45440U 20020S   26160.08203611  .00000243  00000+0  64514-3 0  9998
2 45440  87.8914  22.6493 0001890  85.9793 274.1552 13.11910836301633
ONEWEB-0042             
1 45441U 20020T   26160.11165021 -.00000659  00000+0 -18963-2 0  9994
2 45441  87.8902  22.6664 0001873  81.6933 278.4407 13.11416993301609
ONEWEB-0098             
1 45442U 20020U   26160.18384988 -.00000488  00000+0 -14124-2 0  9992
2 45442  87.8899  22.6611 0001717  85.6255 274.5069 13.11416814301596
ONEWEB-0055             
1 45443U 20020V   26160.08624112  .00000071  00000+0  16503-3 0  9998
2 45443  87.8899  22.6790 0001721  85.6834 274.4491 13.11413253301551
ONEWEB-0093             
1 45444U 20020W   26160.06615876  .00000607  00000+0  16761-2 0  9994
2 45444  87.8903  22.6759 0002043  73.7940 286.3413 13.11418732301617
ONEWEB-0029             
1 45445U 20020X   26160.16958214 -.00000217  00000+0 -64805-3 0  9994
2 45445  87.8890  22.6653 0001799  75.4150 284.7177 13.11418034301608
ONEWEB-0068             
1 45446U 20020Y   26160.06589106  .00000623  00000+0  17211-2 0  9991
2 45446  87.8905  22.6797 0001814  77.3153 282.8177 13.11417851301534
ONEWEB-0046             
1 45447U 20020Z   26160.05753744  .00000357  00000+0  97141-3 0  9997
2 45447  87.8893  22.6880 0002043  80.2185 279.9174 13.11419934301546
ONEWEB-0063             
1 45448U 20020AA  26160.08650230  .00000071  00000+0  16386-3 0  9992
2 45448  87.8902  22.6803 0002098  87.5048 272.6320 13.11416892301634
ONEWEB-0019             
1 45449U 20020AB  26160.12522231  .00000005  00000+0 -22483-4 0  9991
2 45449  87.8898  22.6599 0001678  86.6302 273.5018 13.11419541301488
ONEWEB-0094             
1 45450U 20020AC  26160.07775332  .00000010  00000+0 -77445-5 0  9994
2 45450  87.9147   7.4619 0001660  82.3246 277.8074 13.17650251305241
