[{"OBJECT_NAME":"ONEWEB-0083","OBJECT_ID":"2020-020M","EPOCH":"2026-06-09T02:53:23.739360","MEAN_MOTION":13.11418822,"ECCENTRICITY":0.000172,"INCLINATION":87.8902,"RA_OF_ASC_NODE":22.6655,"ARG_OF_PERICENTER":84.1115,"MEAN_ANOMALY":276.0209,"EPHEMERIS_TYPE":0,"CLASSIFICATION_TYPE":"U","NORAD_CAT_ID":45435,"ELEMENT_SET_NO":999,"REV_AT_EPOCH":30161,"BSTAR":-0.0005240700000000001,"MEAN_MOTION_DOT":-1.73e-06,"MEAN_MOTION_DDOT":0.0},{"OBJECT_NAME":"ONEWEB-0095","OBJECT_ID":"2020-020N","EPOCH":"2026-06-09T02:41:13.011360","MEAN_MOTION":13.11406422,"ECCENTRICITY":0.0002717,"INCLINATION":87.8915,"RA_OF_ASC_NODE":22.6771,"ARG_OF_PERICENTER":94.1682,"MEAN_ANOMALY":265.9757,"EPHEMERIS_TYPE":0,"CLASSIFICATION_TYPE":"U","NORAD_CAT_ID":45436,"ELEMENT_SET_NO":999,"REV_AT_EPOCH":30161,"BSTAR":0.0028011000000000004,"MEAN_MOTION_DOT":1.005e-05,"MEAN_MOTION_DDOT":0.0},{"OBJECT_NAME":"ONEWEB-0092","OBJECT_ID":"2020-020P","EPOCH":"2026-06-09T01:36:47.397600","MEAN_MOTION":13.11955608,"ECCENTRICITY":0.0002143,"INCLINATION":87.8902,"RA_OF_ASC_NODE":22.6764,"ARG_OF_PERICENTER":85.6072,"MEAN_ANOMALY":274.5301,"EPHEMERIS_TYPE":0,"CLASSIFICATION_TYPE":"U","NORAD_CAT_ID":45437,"ELEMENT_SET_NO":999,"REV_AT_EPOCH":30172,"BSTAR":0.0015698,"MEAN_MOTION_DOT":5.74e-06,"MEAN_MOTION_DDOT":0.0},{"OBJECT_NAME":"ONEWEB-0085","OBJECT_ID":"2020-020Q","EPOCH":"2026-06-09T02:52:59.595744","MEAN_MOTION":13.11419728,"ECCENTRICITY":0.0001805,"INCLINATION":87.8897,"RA_OF_ASC_NODE":22.6727,"ARG_OF_PERICENTER":84.4628,"MEAN_ANOMALY":275.6706,"EPHEMERIS_TYPE":0,"CLASSIFICATION_TYPE":"U","NORAD_CAT_ID":45438,"ELEMENT_SET_NO":999,"REV_AT_EPOCH":30161,"BSTAR":-0.00068114,"MEAN_MOTION_DOT":-2.29e-06,"MEAN_MOTION_DDOT":0.0},{"OBJECT_NAME":"ONEWEB-0096","OBJECT_ID":"2020-020R","EPOCH":"2026-06-09T02:55:40.539072","MEAN_MOTION":13.11424282,"ECCENTRICITY":0.000184,"INCLINATION":87.8904,"RA_OF_ASC_NODE":22.6677,"ARG_OF_PERICENTER":86.7787,"MEAN_ANOMALY":273.3551,"EPHEMERIS_TYPE":0,"CLASSIFICATION_TYPE":"U","NORAD_CAT_ID":45439,"ELEMENT_SET_NO":999,"REV_AT_EPOCH":30160,"BSTAR":-0.00040592,"MEAN_MOTION_DOT":-1.31e-06,"MEAN_MOTION_DDOT":0.0},{"OBJECT_NAME":"ONEWEB-0037","OBJECT_ID":"2020-020S","EPOCH":"2026-06-09T01:58:07.919904","MEAN_MOTION":13.11910836,"ECCENTRICITY":0.000189,"INCLINATION":87.8914,"RA_OF_ASC_NODE":22.6493,"ARG_OF_PERICENTER":85.9793,"MEAN_ANOMALY":274.1552,"EPHEMERIS_TYPE":0,"CLASSIFICATION_TYPE":"U","NORAD_CAT_ID":45440,"ELEMENT_SET_NO":999,"REV_AT_EPOCH":30163,"BSTAR":0.0006451400000000001,"MEAN_MOTION_DOT":2.43e-06,"MEAN_MOTION_DDOT":0.0},{"OBJECT_NAME":"ONEWEB-0042","OBJECT_ID":"2020-020T","EPOCH":"2026-06-09T02:40:46.578144","MEAN_MOTION":13.11416993,"ECCENTRICITY":0.0001873,"INCLINATION":87.8902,"RA_OF_ASC_NODE":22.6664,"ARG_OF_PERICENTER":81.6933,"MEAN_ANOMALY":278.4407,"EPHEMERIS_TYPE":0,"CLASSIFICATION_TYPE":"U","NORAD_CAT_ID":45441,"ELEMENT_SET_NO":999,"REV_AT_EPOCH":30160,"BSTAR":-0.0018963,"MEAN_MOTION_DOT":-6.59e-06,"MEAN_MOTION_DDOT":0.0},{"OBJECT_NAME":"ONEWEB-0098","OBJECT_ID":"2020-020U","EPOCH":"2026-06-09T04:24:44.629632","MEAN_MOTION":13.11416814,"ECCENTRICITY":0.0001717,"INCLINATION":87.8899,"RA_OF_ASC_NODE":22.6611,"ARG_OF_PERICENTER":85.6255,"MEAN_ANOMALY":274.5069,"EPHEMERIS_TYPE":0,"CLASSIFICATION_TYPE":"U","NORAD_CAT_ID":45442,"ELEMENT_SET_NO":999,"REV_AT_EPOCH":30159,"BSTAR":-0.0014124,"MEAN_MOTION_DOT":-4.88e-06,"MEAN_MOTION_DDOT":0.0},{"OBJECT_NAME":"ONEWEB-0055","OBJECT_ID":"2020-020V","EPOCH":"2026-06-09T02:04:11.232768","MEAN_MOTION":13.11413253,"ECCENTRICITY":0.0001721,"INCLINATION":87.8899,"RA_OF_ASC_NODE":22.679,"ARG_OF_PERICENTER":85.6834,"MEAN_ANOMALY":274.4491,"EPHEMERIS_TYPE":0,"CLASSIFICATION_TYPE":"U","NORAD_CAT_ID":45443,"ELEMENT_SET_NO":999,"REV_AT_EPOCH":30155,"BSTAR":0.00016503,"MEAN_MOTION_DOT":7.1e-07,"MEAN_MOTION_DDOT":0.0},{"OBJECT_NAME":"ONEWEB-0093","OBJECT_ID":"2020-020W","EPOCH":"2026-06-09T01:35:16.116864","MEAN_MOTION":13.11418732,"ECCENTRICITY":0.0002043,"INCLINATION":87.8903,"RA_OF_ASC_NODE":22.6759,"ARG_OF_PERICENTER":73.794,"MEAN_ANOMALY":286.3413,"EPHEMERIS_TYPE":0,"CLASSIFICATION_TYPE":"U","NORAD_CAT_ID":45444,"ELEMENT_SET_NO":999,"REV_AT_EPOCH":30161,"BSTAR":0.0016761,"MEAN_MOTION_DOT":6.07e-06,"MEAN_MOTION_DDOT":0.0},{"OBJECT_NAME":"ONEWEB-0029","OBJECT_ID":"2020-020X","EPOCH":"2026-06-09T04:04:11.896896","MEAN_MOTION":13.11418034,"ECCENTRICITY":0.0001799,"INCLINATION":87.889,"RA_OF_ASC_NODE":22.6653,"ARG_OF_PERICENTER":75.415,"MEAN_ANOMALY":284.7177,"EPHEMERIS_TYPE":0,"CLASSIFICATION_TYPE":"U","NORAD_CAT_ID":45445,"ELEMENT_SET_NO":999,"REV_AT_EPOCH":30160,"BSTAR":-0.0006480500000000001,"MEAN_MOTION_DOT":-2.17e-06,"MEAN_MOTION_DDOT":0.0},{"OBJECT_NAME":"ONEWEB-0068","OBJECT_ID":"2020-020Y","EPOCH":"2026-06-09T01:34:52.987584","MEAN_MOTION":13.11417851,"ECCENTRICITY":0.0001814,"INCLINATION":87.8905,"RA_OF_ASC_NODE":22.6797,"ARG_OF_PERICENTER":77.3153,"MEAN_ANOMALY":282.8177,"EPHEMERIS_TYPE":0,"CLASSIFICATION_TYPE":"U","NORAD_CAT_ID":45446,"ELEMENT_SET_NO":999,"REV_AT_EPOCH":30153,"BSTAR":0.0017211000000000001,"MEAN_MOTION_DOT":6.23e-06,"MEAN_MOTION_DDOT":0.0},{"OBJECT_NAME":"ONEWEB-0046","OBJECT_ID":"2020-020Z","EPOCH":"2026-06-09T01:22:51.234816","MEAN_MOTION":13.11419934,"ECCENTRICITY":0.0002043,"INCLINATION":87.8893,"RA_OF_ASC_NODE":22.688,"ARG_OF_PERICENTER":80.2185,"MEAN_ANOMALY":279.9174,"EPHEMERIS_TYPE":0,"CLASSIFICATION_TYPE":"U","NORAD_CAT_ID":45447,"ELEMENT_SET_NO":999,"REV_AT_EPOCH":30154,"BSTAR":0.00097141,"MEAN_MOTION_DOT":3.57e-06,"MEAN_MOTION_DDOT":0.0},{"OBJECT_NAME":"ONEWEB-0063","OBJECT_ID":"2020-020AA","EPOCH":"2026-06-09T02:04:33.798720","MEAN_MOTION":13.11416892,"ECCENTRICITY":0.0002098,"INCLINATION":87.8902,"RA_OF_ASC_NODE":22.6803,"ARG_OF_PERICENTER":87.5048,"MEAN_ANOMALY":272.632,"EPHEMERIS_TYPE":0,"CLASSIFICATION_TYPE":"U","NORAD_CAT_ID":45448,"ELEMENT_SET_NO":999,"REV_AT_EPOCH":30163,"BSTAR":0.00016386000000000002,"MEAN_MOTION_DOT":7.1e-07,"MEAN_MOTION_DDOT":0.0},{"OBJECT_NAME":"ONEWEB-0019","OBJECT_ID":"2020-020AB","EPOCH":"2026-06-09T03:00:19.207584","MEAN_MOTION":13.11419541,"ECCENTRICITY":0.0001678,"INCLINATION":87.8898,"RA_OF_ASC_NODE":22.6599,"ARG_OF_PERICENTER":86.6302,"MEAN_ANOMALY":273.5018,"EPHEMERIS_TYPE":0,"CLASSIFICATION_TYPE":"U","NORAD_CAT_ID":45449,"ELEMENT_SET_NO":999,"REV_AT_EPOCH":30148,"BSTAR":-2.2483e-05,"MEAN_MOTION_DOT":5e-08,"MEAN_MOTION_DDOT":0.0},{"OBJECT_NAME":"ONEWEB-0094","OBJECT_ID":"2020-020AC","EPOCH":"2026-06-09T01:51:57.886848","MEAN_MOTION":13.17650251,"ECCENTRICITY":0.000166,"INCLINATION":87.9147,"RA_OF_ASC_NODE":7.4619,"ARG_OF_PERICENTER":82.3246,"MEAN_ANOMALY":277.8074,"EPHEMERIS_TYPE":0,"CLASSIFICATION_TYPE":"U","NORAD_CAT_ID":45450,"ELEMENT_SET_NO":999,"REV_AT_EPOCH":30524,"BSTAR":-7.7445e-06,"MEAN_MOTION_DOT":1e-07,"MEAN_MOTION_DDOT":0.0}]